ORBCOMM FM20            
1 25416U 98046D   24327.54451426  .00002446  00000+0  87657-3 0  9995
2 25416  44.9940  79.2746 0001882 236.5372 123.5296 14.36317811374548
ORBCOMM FM16            
1 25417U 98046E   24327.76361550  .00003462  00000+0  11876-2 0  9996
2 25417  44.9939  72.2773 0004011 306.6783  53.3696 14.37681819374752
ORBCOMM FM15            
1 25418U 98046F   24327.55264875  .00002923  00000+0  10168-2 0  9990
2 25418  44.9969  77.8372 0003508 304.6055  55.4461 14.37359307374502
ORBCOMM FM14            
1 25419U 98046G   24327.75600295  .00003301  00000+0  11355-2 0  9993
2 25419  44.9956  75.6440 0003032 284.5529  75.4983 14.37642614374715
ORBCOMM FM13            
1 25420U 98046H   24327.56767925  .00003057  00000+0  10765-2 0  9990
2 25420  44.9970  82.6809 0004890 295.9341  64.1003 14.36642614373515
ORBCOMM FM21            
1 25475U 98053A   24327.74432810  .00001866  00000+0  67829-3 0  9990
2 25475  45.0068 166.5324 0000698 226.0359 134.0431 14.36455864367889
ORBCOMM FM22            
1 25476U 98053B   24327.70555199  .00002428  00000+0  85491-3 0  9993
2 25476  45.0054 163.0457 0002476 245.5596 114.4994 14.37232091367915
ORBCOMM FM23            
1 25477U 98053C   24327.62611827  .00002025  00000+0  73085-3 0  9995
2 25477  45.0067 169.4374 0001632 243.0213 117.0468 14.36541580367684
